HELIOS 1B               
1 25977U 99064A   20352.06382717  .00000053  00000-0  13751-4 0  9993
2 25977  98.2990 153.5694 0002476 103.3708 256.7780 14.82517983133474
TERRA                   
1 25994U 99068A   20351.79056517  .00000088  00000-0  29600-4 0  9999
2 25994  98.1970  63.3784 0001214  93.9157  53.6231 14.57112390116740
SL-16 R/B               
1 26070U 00006B   20351.84666429  .00000097  00000-0  74073-4 0  9998
2 26070  70.9993 149.9741 0017741 213.1105 146.8909 14.15468615 78443
MTI                     
1 26102U 00014A   20351.67760570  .00007342  00000-0  99947-4 0  9993
2 26102  97.4826 242.8583 0005126 281.1069  78.9593 15.57872284152864
TITAN 4B R/B            
1 26474U 00047B   20352.17783309  .00000303  00000-0  37042-4 0  9990
2 26474  67.9939 292.7052 0056591 351.4369   8.5802 14.96048474106650
ENVISAT                 
1 27386U 02009A   20352.00608148  .00000027  00000-0  22468-4 0  9991
2 27386  98.1402 349.4840 0001337  87.8615 330.2891 14.38004788984856
IDEFIX & ARIANE 42P R/B 
1 27422U 02021B   20351.88799491  .00000003  00000-0  17432-4 0  9992
2 27422  98.3782 305.6254 0013245  54.9631 305.2793 14.29302736971221
AQUA                    
1 27424U 02022A   20352.14938418  .00000112  00000-0  34887-4 0  9993
2 27424  98.2111 290.0859 0002218 111.9411  13.6657 14.57117316990526
CZ-4B R/B               
1 27432U 02024C   20352.02051392 -.00000030  00000-0  84565-5 0  9997
2 27432  99.0899 357.3332 0050813  22.4595 353.0211 14.14101518959536
MIDORI II (ADEOS-II)    
1 27597U 02056A   20351.85260991  .00000046  00000-0  36110-4 0  9999
2 27597  98.5436 295.0385 0001458 124.2955 235.8364 14.27475062937834
H-2A R/B                
1 27601U 02056E   20352.10819519  .00000098  00000-0  49990-4 0  9997
2 27601  98.2075  18.3058 0073350  93.5392 330.8876 14.31991859940832
CZ-4B R/B               
1 28059U 03049C   20351.79097815  .00000043  00000-0  22220-4 0  9996
2 28059  98.4890 270.3587 0049104 301.9971  57.6457 14.52626262909305
CZ-2C R/B               
1 28222U 04012C   20351.88915066  .00000523  00000-0  34891-4 0  9996
2 28222  97.7031 315.1945 0048179 124.7565 288.2247 15.10607719913533
SL-16 R/B               
1 28353U 04021B   20351.90438984  .00000304  00000-0  18408-3 0  9995
2 28353  71.0013 276.6693 0003467  40.0828 320.0549 14.14240340852939
CZ-4B R/B               
1 28415U 04035C   20352.17596056  .00000146  00000-0  13699-4 0  9996
2 28415  97.5912  31.5191 0053061  89.4855 271.2452 15.06982692891154
CZ-2C R/B               
1 28480U 04046B   20352.09504859 -.00000036  00000-0  12095-5 0  9990
2 28480  98.0614  12.7175 0142748  44.5621  19.3247 14.25736088836460
ARIANE 5 R/B            
1 28499U 04049H   20351.92115859  .00000075  00000-0  16525-4 0  9995
2 28499  98.0631  94.3631 0093029  44.2359  71.1852 14.80073755863086
CZ-2D R/B               
1 28738U 05024B   20351.62680090  .00000487  00000-0  31785-4 0  9998
2 28738  97.3712   8.0553 0010227 275.0621  84.9443 15.12205464848939
SUZAKU (ASTRO-EII)      
1 28773U 05025A   20351.19861492  .00001581  00000-0  71665-4 0  9994
2 28773  31.3818 274.6424 0004755 237.8154 122.2032 15.17935224851592
ALOS (DAICHI)           
1 28931U 06002A   20351.92254632  .00000182  00000-0  44253-4 0  9998
2 28931  97.8656 328.9062 0000447  65.8892 294.2360 14.62774897794370
H-2A R/B                
1 28932U 06002B   20352.09518314  .00000656  00000-0  65656-4 0  9994
2 28932  98.3305 352.5338 0089789  84.2324 318.4904 14.92377992808498
AKARI (ASTRO-F)         
1 28939U 06005A   20351.93907552  .00005166  00000-0  13330-3 0  9994
2 28939  98.2471 347.3354 0091879  46.0553 314.8221 15.35440260808883
RESURS-DK 1             
1 29228U 06021A   20351.68756174  .00000174  00000-0  20412-4 0  9992
2 29228  69.9361  84.0620 0005732 216.2932 143.7841 15.02614758800129
GENESIS 1               
1 29252U 06029A   20351.60607981  .00000614  00000-0  39607-4 0  9995
2 29252  64.5233  65.7264 0020410 356.3682   3.7290 15.18375438795833
CZ-4B R/B               
1 29507U 06046C   20352.06467764  .00000288  00000-0  27286-4 0  9998
2 29507  97.7185  13.1161 0045566 272.7930  86.8079 15.00597888772804
CZ-2C R/B               
1 31114U 07010B   20351.53711303  .00000013  00000-0  24278-4 0  9993
2 31114  98.2393 192.0027 0060883  96.1831 264.6287 14.19340730708833
COSMO-SKYMED 1          
1 31598U 07023A   20352.02626358  .00000323  00000-0  47145-4 0  9995
2 31598  97.8823 172.5395 0001502  89.4451 270.6919 14.82160709731874
GENESIS 2               
1 31789U 07028A   20351.79593742  .00000983  00000-0  58502-4 0  9996
2 31789  64.5031 107.0754 0032219 224.2434 135.6113 15.17500432742844
COSMOS 2428             
1 31792U 07029A   20352.16090200 -.00000152  00000-0 -56234-4 0  9994
2 31792  70.8938 249.1196 0007526 178.5617 181.5526 14.12245120694667
SL-16 R/B               
1 31793U 07029B   20351.95236233 -.00000285  00000-0 -12387-3 0  9996
2 31793  70.9750 222.9961 0002574 280.2928 170.1785 14.14439412695465
KORONAS-FOTON           
1 33504U 09003A   20351.64355734  .00000414  00000-0  19924-4 0  9993
2 33504  82.4425  41.5279 0019264  13.6428 346.5321 15.15808233654988
H-2A R/B                
1 38341U 12025E   20351.55676960  .00000203  00000-0  31296-4 0  9994
2 38341  98.5165 158.6120 0055605   8.2347 351.9765 14.84131052464372
CUSAT 2 & FALCON 9 R/B  
1 39271U 13055G   20351.75865488  .00005632  00000-0  13413-3 0  9999
2 39271  80.9672  70.6309 0578728 341.2798  16.7858 14.50315945377135
SL-4 R/B                
1 39679U 14021B   20352.13593565  .00000400  00000-0  37138-4 0  9991
2 39679  51.6175 339.5153 0170805 218.7485 140.1134 15.06683073366880
ALOS-2                  
1 39766U 14029A   20352.05222203  .00000016  00000-0  90041-5 0  9991
2 39766  97.9232  86.0416 0001520  91.8279 268.3052 14.79471470354691
CZ-2C R/B               
1 40306U 14071B   20351.82579751  .00004966  00000-0  10188-3 0  9997
2 40306  97.3486 300.2899 0013487 215.0456 144.9908 15.46432775342018
SL-27 R/B               
1 40354U 14084B   20351.83807487  .00001190  00000-0  29870-4 0  9990
2 40354  74.7376  10.6860 0035527 108.0880 252.4208 15.40625408336213
YAOGAN 29               
1 41038U 15069A   20352.06044030  .00000053  00000-0  13896-4 0  9995
2 41038  98.0253 339.8827 0002015  57.9776 302.1637 14.80476137273290
ASTRO-H (HITOMI)        
1 41337U 16012A   20352.15400947  .00000330  00000-0  19858-4 0  9991
2 41337  31.0058 291.3116 0012253  76.9199 283.2803 14.98757723264937
HXMT (HUIYAN)           
1 42758U 17034A   20352.22816175  .00000340  00000-0  34779-4 0  9996
2 42758  43.0166 113.2097 0008602  94.9576 337.0395 15.08998356193486
CZ-2C R/B               
1 43521U 18054D   20351.83093572  .00000735  00000-0  41438-4 0  9990
2 43521  35.1529 135.8460 0083191 286.4779  72.6807 15.11243478136752
AEOLUS                  
1 43600U 18066A   20352.05156772  .00037583  00000-0  14691-3 0  9999
2 43600  96.7174 355.6954 0005089 108.3248 251.8579 15.86928655134329
SAOCOM 1A               
1 43641U 18076A   20352.30462682 -.00008372  00000-0 -10469-2 0  9997
2 43641  97.8850 175.8233 0001406  87.0974 272.9898 14.82138206118686
CREW DRAGON DEMO-1 DEB  
1 44064U 19011B   20351.59837512  .00031343  00000-0  23542-3 0  9994
2 44064  51.6323 105.8744 0002856   8.2966 351.8079 15.72288855101489
CZ-2F R/B               
1 46390U 20063B   20352.09903209  .00035113  00000-0  16098-3 0  9997
2 46390  50.2015 232.0032 0010312  36.5956 323.5729 15.83215560 16419
2020-063G               
1 46395U 20063G   20351.89169941  .00014650  00000-0  81030-4 0  9998
2 46395  50.2040 234.4977 0009383  25.5138 334.6305 15.79799077 16353
